[{"id":0,"street":"Naomi Vista","city":"Lake Ardenland","zipcode":"61331-4617","geo":{"id":61,"lat":"20.0265","lng":"-38.0777"}},{"id":1,"street":"Skye Meadow","city":"Aidamouth","zipcode":"78655-8026","geo":{"id":2,"lat":"-22.5740","lng":"-85.2675"}},{"id":2,"street":"Levi Harbors","city":"Lake Bailey","zipcode":"76664-4733","geo":{"id":51,"lat":"63.2060","lng":"82.5031"}},{"id":3,"street":"Tyrese Prairie","city":"Lefflerchester","zipcode":"35569","geo":{"id":10,"lat":"-10.8927","lng":"148.1965"}},{"id":4,"street":"Cheyenne Squares","city":"Lake Rocky","zipcode":"35191","geo":{"id":15,"lat":"72.9390","lng":"57.8916"}},{"id":5,"street":"Isidro Parkways","city":"Joanneside","zipcode":"61532","geo":{"id":18,"lat":"54.5155","lng":"135.3886"}},{"id":6,"street":"Fahey Summit","city":"Kuvalisberg","zipcode":"07922-0892","geo":{"id":6,"lat":"-44.7512","lng":"-21.5850"}},{"id":7,"street":"Darius Row","city":"Retaberg","zipcode":"79241-2687","geo":{"id":54,"lat":"51.5307","lng":"31.6001"}},{"id":8,"street":"Durgan Skyway","city":"East Elliemouth","zipcode":"93936-1860","geo":{"id":97,"lat":"-12.1681","lng":"5.7233"}},{"id":9,"street":"Witting Street","city":"Lake Albertha","zipcode":"30658-2603","geo":{"id":12,"lat":"-15.9026","lng":"131.0637"}},{"id":10,"street":"Adrien Plains","city":"New Herminioville","zipcode":"91796","geo":{"id":59,"lat":"37.7626","lng":"16.2340"}},{"id":11,"street":"Waelchi Cliffs","city":"Port Reinholdmouth","zipcode":"76373","geo":{"id":88,"lat":"82.4019","lng":"-22.1301"}},{"id":12,"street":"Lebsack Oval","city":"North Reggie","zipcode":"44296","geo":{"id":45,"lat":"-54.1420","lng":"133.6449"}},{"id":13,"street":"Adan Fords","city":"West Josueport","zipcode":"11905-2726","geo":{"id":16,"lat":"-89.7473","lng":"60.3047"}},{"id":14,"street":"Yundt Trace","city":"East Holliefurt","zipcode":"56468-7955","geo":{"id":70,"lat":"43.0028","lng":"80.9341"}},{"id":15,"street":"Mireya Stream","city":"North Desireeshire","zipcode":"12025-4349","geo":{"id":92,"lat":"-27.8698","lng":"-66.9955"}},{"id":16,"street":"Gilda Courts","city":"Jevonfort","zipcode":"07417-0779","geo":{"id":9,"lat":"26.3456","lng":"-178.0036"}},{"id":17,"street":"Rowena Port","city":"West Heather","zipcode":"53628-5050","geo":{"id":25,"lat":"-85.2082","lng":"12.5600"}},{"id":18,"street":"Schuppe Circle","city":"North Bonnieberg","zipcode":"97223","geo":{"id":56,"lat":"56.6101","lng":"-121.8786"}},{"id":19,"street":"Hintz Crest","city":"Opalport","zipcode":"87315-3649","geo":{"id":86,"lat":"-80.6724","lng":"128.4116"}},{"id":20,"street":"Daugherty Squares","city":"New Jarredberg","zipcode":"42500","geo":{"id":57,"lat":"-53.1256","lng":"-103.2815"}},{"id":21,"street":"Lyda Rapid","city":"Port Juddburgh","zipcode":"77969","geo":{"id":15,"lat":"40.0340","lng":"68.9472"}},{"id":22,"street":"Andreane Trafficway","city":"Roobbury","zipcode":"68063","geo":{"id":39,"lat":"24.9835","lng":"-109.6295"}},{"id":23,"street":"Oleta Passage","city":"West Jettfurt","zipcode":"05969","geo":{"id":71,"lat":"17.6590","lng":"5.7504"}},{"id":24,"street":"Trudie Hollow","city":"Freddyfurt","zipcode":"31481","geo":{"id":4,"lat":"-88.3886","lng":"-101.6936"}},{"id":25,"street":"Melvin Ports","city":"Ritchiebury","zipcode":"20101-6778","geo":{"id":6,"lat":"-50.0656","lng":"16.5740"}},{"id":26,"street":"Boyle Way","city":"Port Eileenchester","zipcode":"90795","geo":{"id":27,"lat":"72.1180","lng":"-83.4843"}},{"id":27,"street":"Fadel Passage","city":"New Pauline","zipcode":"85177-5050","geo":{"id":37,"lat":"-23.3345","lng":"-96.0767"}},{"id":28,"street":"O'Conner Prairie","city":"Lake Michelleville","zipcode":"73960","geo":{"id":44,"lat":"-62.3320","lng":"165.4173"}},{"id":29,"street":"Rosenbaum Pike","city":"North Ebbaberg","zipcode":"65883-9395","geo":{"id":82,"lat":"-6.5253","lng":"-46.1125"}},{"id":30,"street":"Pietro Manor","city":"Emmerichtown","zipcode":"93067","geo":{"id":57,"lat":"-21.0875","lng":"-44.6535"}},{"id":31,"street":"Gerson Union","city":"South Derick","zipcode":"41147-7911","geo":{"id":42,"lat":"31.5028","lng":"-26.8741"}},{"id":32,"street":"Giuseppe Glen","city":"Port Franz","zipcode":"28521-0959","geo":{"id":45,"lat":"33.7925","lng":"-36.3589"}},{"id":33,"street":"Moises Centers","city":"Klockoton","zipcode":"01222-8117","geo":{"id":18,"lat":"-39.6149","lng":"-6.4998"}},{"id":34,"street":"Feest Parks","city":"Kuphalberg","zipcode":"61672","geo":{"id":6,"lat":"0.2579","lng":"-96.4466"}},{"id":35,"street":"Damion Burg","city":"Salmabury","zipcode":"04512","geo":{"id":60,"lat":"54.5682","lng":"-110.0847"}},{"id":36,"street":"Farrell Lakes","city":"Lake Alanis","zipcode":"07415-5333","geo":{"id":61,"lat":"20.0986","lng":"82.5455"}},{"id":37,"street":"Harvey Trace","city":"New Garth","zipcode":"21592","geo":{"id":16,"lat":"0.0800","lng":"10.4429"}},{"id":38,"street":"Corkery Shores","city":"Breitenbergville","zipcode":"96121","geo":{"id":48,"lat":"-23.5805","lng":"-85.4999"}},{"id":39,"street":"Niko Pine","city":"Schmelerland","zipcode":"09758","geo":{"id":83,"lat":"69.3809","lng":"-112.6817"}},{"id":40,"street":"Yundt Lakes","city":"South Anne","zipcode":"62735","geo":{"id":34,"lat":"-78.4756","lng":"-44.4703"}},{"id":41,"street":"Ophelia Creek","city":"West Dexter","zipcode":"47084","geo":{"id":39,"lat":"89.0834","lng":"65.6644"}},{"id":42,"street":"Osinski Junctions","city":"Lake Maximoberg","zipcode":"29933","geo":{"id":47,"lat":"-61.8701","lng":"152.9695"}},{"id":43,"street":"Alvena Divide","city":"Goyettehaven","zipcode":"94643-1108","geo":{"id":29,"lat":"-27.7981","lng":"-68.1551"}},{"id":44,"street":"Llewellyn Tunnel","city":"South Trevion","zipcode":"88180-1258","geo":{"id":13,"lat":"-34.6292","lng":"-129.3321"}},{"id":45,"street":"Clark Cliff","city":"Daijafort","zipcode":"61672-7332","geo":{"id":84,"lat":"62.0356","lng":"89.4514"}},{"id":46,"street":"Wava Terrace","city":"South Salvador","zipcode":"08512","geo":{"id":15,"lat":"38.6768","lng":"72.9036"}},{"id":47,"street":"Langosh Stravenue","city":"Charlesmouth","zipcode":"29697-4745","geo":{"id":7,"lat":"-35.2767","lng":"-0.5133"}},{"id":48,"street":"King Neck","city":"Demetriustown","zipcode":"41680","geo":{"id":56,"lat":"66.7276","lng":"81.5567"}},{"id":49,"street":"White Isle","city":"Lake Eldonhaven","zipcode":"06435-3831","geo":{"id":43,"lat":"10.2746","lng":"135.8397"}},{"id":50,"street":"Spencer Stravenue","city":"Dawnfurt","zipcode":"25548-2843","geo":{"id":41,"lat":"-13.4068","lng":"62.6115"}},{"id":51,"street":"Guillermo Hill","city":"New Ashtynside","zipcode":"66051","geo":{"id":63,"lat":"21.4006","lng":"95.1312"}},{"id":52,"street":"Kulas Wells","city":"West Roslyn","zipcode":"82861","geo":{"id":65,"lat":"-84.8951","lng":"43.6385"}},{"id":53,"street":"Tyson Junctions","city":"Johnpaulfort","zipcode":"73587-1765","geo":{"id":43,"lat":"-38.5889","lng":"-97.2568"}},{"id":54,"street":"Mohr Cape","city":"North Eliseoside","zipcode":"90282-6065","geo":{"id":0,"lat":"89.4571","lng":"102.0371"}},{"id":55,"street":"Christine Loaf","city":"New Enrico","zipcode":"23535-8999","geo":{"id":92,"lat":"85.7983","lng":"-29.4132"}},{"id":56,"street":"Kunze Keys","city":"Lake Velma","zipcode":"89472","geo":{"id":61,"lat":"-87.8121","lng":"76.2250"}},{"id":57,"street":"Reba Via","city":"Anaisview","zipcode":"24482-4460","geo":{"id":38,"lat":"-76.4043","lng":"128.8129"}},{"id":58,"street":"Tillman Plains","city":"North Sashafurt","zipcode":"11115","geo":{"id":13,"lat":"3.0867","lng":"-154.9752"}},{"id":59,"street":"Mollie Parkway","city":"Robertsmouth","zipcode":"04600","geo":{"id":47,"lat":"-50.7797","lng":"39.8971"}},{"id":60,"street":"Johns Corners","city":"Osinskiborough","zipcode":"32023-2980","geo":{"id":46,"lat":"-44.0745","lng":"5.1709"}},{"id":61,"street":"Terry Loaf","city":"New Reeceborough","zipcode":"39909","geo":{"id":7,"lat":"-84.4330","lng":"-83.2791"}},{"id":62,"street":"Eldon Prairie","city":"Mackenziemouth","zipcode":"95748","geo":{"id":82,"lat":"35.3472","lng":"-74.8275"}},{"id":63,"street":"Ward Pass","city":"Padbergstad","zipcode":"99039-2914","geo":{"id":15,"lat":"81.6151","lng":"159.8383"}},{"id":64,"street":"Kihn Crossroad","city":"North Mayra","zipcode":"81059-7136","geo":{"id":0,"lat":"66.6818","lng":"31.1973"}},{"id":65,"street":"Nicolette Avenue","city":"Fletaside","zipcode":"08541-3251","geo":{"id":41,"lat":"-49.8369","lng":"-34.5008"}},{"id":66,"street":"Tremblay Mall","city":"West Johnnyton","zipcode":"61899-2802","geo":{"id":73,"lat":"-89.2225","lng":"-98.9648"}},{"id":67,"street":"Yesenia Knoll","city":"West Monserrat","zipcode":"72985","geo":{"id":41,"lat":"28.5084","lng":"43.6817"}},{"id":68,"street":"Florida Mission","city":"Stammfurt","zipcode":"72215","geo":{"id":70,"lat":"71.2316","lng":"87.1731"}},{"id":69,"street":"Swaniawski Mountain","city":"Florineshire","zipcode":"49489-4819","geo":{"id":0,"lat":"-22.2221","lng":"123.3218"}},{"id":70,"street":"Medhurst Wells","city":"South Lowellstad","zipcode":"08691-5653","geo":{"id":44,"lat":"24.6241","lng":"6.5759"}},{"id":71,"street":"Clemens Haven","city":"North Agustina","zipcode":"06883-8504","geo":{"id":36,"lat":"-84.3525","lng":"106.6066"}},{"id":72,"street":"Jade Turnpike","city":"Baileemouth","zipcode":"01481","geo":{"id":89,"lat":"52.7110","lng":"-139.3091"}},{"id":73,"street":"Rath Key","city":"West Michalestad","zipcode":"52704","geo":{"id":93,"lat":"18.3850","lng":"-68.0642"}},{"id":74,"street":"Braun Turnpike","city":"Jackyland","zipcode":"37053-9606","geo":{"id":69,"lat":"-69.3509","lng":"172.8116"}},{"id":75,"street":"Boyle Flats","city":"North Nellie","zipcode":"18113-7781","geo":{"id":56,"lat":"-57.9139","lng":"139.0610"}},{"id":76,"street":"Jordi Spur","city":"Roxanneview","zipcode":"67576-4437","geo":{"id":4,"lat":"67.4007","lng":"-86.3283"}},{"id":77,"street":"Orval Locks","city":"Sipesstad","zipcode":"47212-4689","geo":{"id":27,"lat":"89.4715","lng":"-110.9813"}},{"id":78,"street":"Krajcik Locks","city":"Ziemannburgh","zipcode":"31577-6574","geo":{"id":73,"lat":"2.2999","lng":"-54.3859"}},{"id":79,"street":"Russel Vista","city":"South Elvera","zipcode":"48320","geo":{"id":7,"lat":"52.4791","lng":"-165.3615"}},{"id":80,"street":"Nicolas Grove","city":"Samsonbury","zipcode":"89526","geo":{"id":13,"lat":"7.0952","lng":"118.0375"}},{"id":81,"street":"Nestor Key","city":"Port Luzshire","zipcode":"88420-8604","geo":{"id":53,"lat":"83.5912","lng":"-97.2224"}},{"id":82,"street":"Heathcote Mountain","city":"South Guadalupeshire","zipcode":"16644","geo":{"id":84,"lat":"-61.2055","lng":"169.1084"}},{"id":83,"street":"Hagenes Fall","city":"Lake Hannah","zipcode":"82280","geo":{"id":62,"lat":"37.6266","lng":"-126.9696"}},{"id":84,"street":"Smith Radial","city":"Medatown","zipcode":"32151-5708","geo":{"id":38,"lat":"-50.5092","lng":"-101.3989"}},{"id":85,"street":"Dortha Ferry","city":"Laurynfort","zipcode":"39190","geo":{"id":30,"lat":"-87.9122","lng":"-48.4271"}},{"id":86,"street":"Cade Village","city":"Beattyside","zipcode":"69071-9640","geo":{"id":73,"lat":"49.3031","lng":"176.8809"}},{"id":87,"street":"Jamarcus Ville","city":"Grimesview","zipcode":"55691","geo":{"id":79,"lat":"4.8435","lng":"127.7806"}},{"id":88,"street":"Garrick Ford","city":"Pfefferton","zipcode":"62745","geo":{"id":39,"lat":"-11.0563","lng":"-173.6347"}},{"id":89,"street":"Jammie Court","city":"New Emory","zipcode":"28530","geo":{"id":50,"lat":"5.1478","lng":"-34.2856"}},{"id":90,"street":"Lynch Roads","city":"North Monroe","zipcode":"50728-3322","geo":{"id":16,"lat":"-71.1406","lng":"179.7460"}},{"id":91,"street":"Andrew Passage","city":"Hegmannshire","zipcode":"56657-9073","geo":{"id":24,"lat":"-5.8027","lng":"-6.8194"}},{"id":92,"street":"Marilie Rest","city":"Jorgeville","zipcode":"92401-5838","geo":{"id":95,"lat":"-46.2166","lng":"38.1387"}},{"id":93,"street":"Marlin Brook","city":"North Kaileyside","zipcode":"45249","geo":{"id":58,"lat":"42.7290","lng":"157.9124"}},{"id":94,"street":"Arvel Locks","city":"West Susiefurt","zipcode":"80792-7580","geo":{"id":84,"lat":"-13.6966","lng":"151.1704"}},{"id":95,"street":"DuBuque Crossroad","city":"Jordanstad","zipcode":"51735","geo":{"id":99,"lat":"-36.1800","lng":"66.9933"}},{"id":96,"street":"Tianna Meadows","city":"Heidenreichview","zipcode":"07864","geo":{"id":14,"lat":"89.5299","lng":"10.7567"}},{"id":97,"street":"Dandre Green","city":"Dominicside","zipcode":"94277-5109","geo":{"id":99,"lat":"-85.9188","lng":"120.9421"}},{"id":98,"street":"Bayer Course","city":"Brownbury","zipcode":"51703","geo":{"id":58,"lat":"64.3092","lng":"-121.8779"}},{"id":99,"street":"Easton Manors","city":"Lake Chloeview","zipcode":"83097-7897","geo":{"id":74,"lat":"-2.0354","lng":"-153.8552"}}]