{"0":{"id":0,"street":"Gerlach Freeway","city":"West Nelshaven","zipcode":"73243-6844","geo":{"id":53,"lat":"32.4139","lng":"70.7746"}},"1":{"id":1,"street":"Langworth Underpass","city":"Jaycemouth","zipcode":"49564-3008","geo":{"id":5,"lat":"3.7851","lng":"103.5187"}},"2":{"id":2,"street":"Devyn Summit","city":"East Bethany","zipcode":"17437","geo":{"id":36,"lat":"-52.0840","lng":"170.4484"}},"3":{"id":3,"street":"Mueller Plain","city":"North Bobbytown","zipcode":"97336","geo":{"id":67,"lat":"-3.6529","lng":"-0.8527"}},"4":{"id":4,"street":"Rebeca Viaduct","city":"Klockobury","zipcode":"20311","geo":{"id":28,"lat":"-0.1855","lng":"59.8880"}},"5":{"id":5,"street":"Eduardo Ridges","city":"Marleyland","zipcode":"31540-1850","geo":{"id":27,"lat":"38.5028","lng":"45.2300"}},"6":{"id":6,"street":"Mills Mission","city":"North Kelton","zipcode":"43232","geo":{"id":89,"lat":"14.8530","lng":"19.1608"}},"7":{"id":7,"street":"Schumm Manors","city":"Gudrunview","zipcode":"27356-8620","geo":{"id":28,"lat":"-5.0529","lng":"51.5560"}},"8":{"id":8,"street":"Daniel Terrace","city":"Bodefurt","zipcode":"01109","geo":{"id":41,"lat":"-69.5754","lng":"107.9750"}},"9":{"id":9,"street":"Kihn Terrace","city":"Kieranfort","zipcode":"96274-8049","geo":{"id":65,"lat":"60.7502","lng":"-1.3997"}},"10":{"id":10,"street":"Candida Court","city":"Gracefurt","zipcode":"41543","geo":{"id":75,"lat":"78.6390","lng":"-49.7007"}},"11":{"id":11,"street":"Brekke Path","city":"Cristberg","zipcode":"82329-7126","geo":{"id":42,"lat":"-88.6279","lng":"-174.6137"}},"12":{"id":12,"street":"Stracke Ports","city":"Leannonstad","zipcode":"36267-1065","geo":{"id":14,"lat":"88.5889","lng":"93.5484"}},"13":{"id":13,"street":"Donny Harbors","city":"North Whitney","zipcode":"16969","geo":{"id":91,"lat":"-85.4175","lng":"-77.6260"}},"14":{"id":14,"street":"Mozell Court","city":"Lake Philip","zipcode":"16376","geo":{"id":26,"lat":"-34.1494","lng":"101.3508"}},"15":{"id":15,"street":"Isaiah Shoal","city":"Lednerstad","zipcode":"72285-5337","geo":{"id":56,"lat":"35.9070","lng":"10.9210"}},"16":{"id":16,"street":"Reynolds Row","city":"Huelview","zipcode":"01244-2310","geo":{"id":24,"lat":"53.2969","lng":"76.8772"}},"17":{"id":17,"street":"Walter Spring","city":"Marleychester","zipcode":"58155","geo":{"id":56,"lat":"60.5674","lng":"159.5465"}},"18":{"id":18,"street":"Weimann Spurs","city":"Lake Karenbury","zipcode":"05614","geo":{"id":66,"lat":"-58.2718","lng":"-164.4677"}},"19":{"id":19,"street":"Ericka Drive","city":"New Raheemport","zipcode":"49963","geo":{"id":100,"lat":"-24.3165","lng":"175.5538"}},"20":{"id":20,"street":"Lesly Passage","city":"Greenborough","zipcode":"53633-8674","geo":{"id":52,"lat":"-10.0371","lng":"-4.8168"}},"21":{"id":21,"street":"Erdman Junction","city":"Brianneshire","zipcode":"10643","geo":{"id":58,"lat":"23.7017","lng":"127.3143"}},"22":{"id":22,"street":"Janiya Plaza","city":"Rosaview","zipcode":"36184-7032","geo":{"id":82,"lat":"-78.1986","lng":"177.5910"}},"23":{"id":23,"street":"Lenna Lodge","city":"South Geoffrey","zipcode":"53921-4452","geo":{"id":21,"lat":"-30.5360","lng":"123.8896"}},"24":{"id":24,"street":"Willie Creek","city":"Stokesbury","zipcode":"95600-5052","geo":{"id":66,"lat":"23.9918","lng":"73.0830"}},"25":{"id":25,"street":"O'Reilly Shoals","city":"Port Marionhaven","zipcode":"74760","geo":{"id":53,"lat":"55.1565","lng":"143.0941"}},"26":{"id":26,"street":"Hermiston Causeway","city":"Lucioville","zipcode":"90539-1808","geo":{"id":82,"lat":"48.5424","lng":"-176.8347"}},"27":{"id":27,"street":"Bednar Roads","city":"Christland","zipcode":"56934-4736","geo":{"id":31,"lat":"-58.2638","lng":"-94.8156"}},"28":{"id":28,"street":"Halvorson Land","city":"Lake Trevionton","zipcode":"04281-2194","geo":{"id":65,"lat":"18.0651","lng":"-138.3546"}},"29":{"id":29,"street":"Ola Circles","city":"Fanniefort","zipcode":"84406-1585","geo":{"id":60,"lat":"66.7033","lng":"-36.9710"}},"30":{"id":30,"street":"Stewart Lights","city":"West Lupeshire","zipcode":"78472","geo":{"id":94,"lat":"-8.2843","lng":"30.0533"}},"31":{"id":31,"street":"Maggie Rest","city":"Remingtonland","zipcode":"69980-8203","geo":{"id":13,"lat":"38.7700","lng":"88.7335"}},"32":{"id":32,"street":"Dylan Cliffs","city":"New Aldaton","zipcode":"20764","geo":{"id":93,"lat":"-14.6117","lng":"-100.6102"}},"33":{"id":33,"street":"Harber Courts","city":"Loweshire","zipcode":"68257-0682","geo":{"id":25,"lat":"48.9299","lng":"106.8685"}},"34":{"id":34,"street":"Carroll Unions","city":"East Evanschester","zipcode":"78605-2425","geo":{"id":50,"lat":"-88.8245","lng":"149.1387"}},"35":{"id":35,"street":"Reese Squares","city":"Caesarhaven","zipcode":"41245","geo":{"id":78,"lat":"66.4618","lng":"6.0204"}},"36":{"id":36,"street":"Smith Track","city":"Alside","zipcode":"93078-0932","geo":{"id":71,"lat":"-25.1136","lng":"17.8128"}},"37":{"id":37,"street":"Edwardo Rapids","city":"Kunzeberg","zipcode":"13978","geo":{"id":88,"lat":"-33.7012","lng":"-70.4505"}},"38":{"id":38,"street":"Konopelski Station","city":"West Adolphus","zipcode":"85408","geo":{"id":99,"lat":"17.1319","lng":"-169.5656"}},"39":{"id":39,"street":"Patrick Turnpike","city":"New Trystan","zipcode":"16774","geo":{"id":22,"lat":"78.4846","lng":"80.1279"}},"40":{"id":40,"street":"Marquardt Greens","city":"Kittyview","zipcode":"35406","geo":{"id":73,"lat":"78.3485","lng":"-166.2121"}},"41":{"id":41,"street":"Hermann Parkways","city":"North Leopoldborough","zipcode":"95331-5363","geo":{"id":5,"lat":"-69.3028","lng":"-115.9094"}},"42":{"id":42,"street":"Willms Tunnel","city":"Claybury","zipcode":"70092-7959","geo":{"id":31,"lat":"-23.5318","lng":"-11.8497"}},"43":{"id":43,"street":"Rebeca Loaf","city":"North Tamaraborough","zipcode":"17841-2629","geo":{"id":35,"lat":"29.8823","lng":"-37.8172"}},"44":{"id":44,"street":"Franecki Land","city":"West Elmoton","zipcode":"47454","geo":{"id":28,"lat":"1.1093","lng":"112.4983"}},"45":{"id":45,"street":"Lonny Points","city":"South Gilbertton","zipcode":"34011-1590","geo":{"id":50,"lat":"23.3632","lng":"27.1235"}},"46":{"id":46,"street":"Guadalupe Light","city":"Stonechester","zipcode":"73750-5327","geo":{"id":11,"lat":"54.2313","lng":"135.5731"}},"47":{"id":47,"street":"Tremblay Walk","city":"Starkstad","zipcode":"28299","geo":{"id":15,"lat":"-72.8612","lng":"102.9896"}},"48":{"id":48,"street":"Bayer Run","city":"Zboncakton","zipcode":"70018-6151","geo":{"id":71,"lat":"-53.3704","lng":"-84.0949"}},"49":{"id":49,"street":"Maudie Knolls","city":"West Amari","zipcode":"58368-3824","geo":{"id":77,"lat":"87.7317","lng":"36.3202"}},"50":{"id":50,"street":"McLaughlin Ways","city":"Quitzonborough","zipcode":"14930-0950","geo":{"id":46,"lat":"34.5442","lng":"-36.0000"}},"51":{"id":51,"street":"Kaya Estates","city":"Dustyshire","zipcode":"29567","geo":{"id":96,"lat":"-14.9411","lng":"-8.0909"}},"52":{"id":52,"street":"Isadore Flat","city":"Lake Garry","zipcode":"94001-4480","geo":{"id":57,"lat":"25.1082","lng":"-13.1061"}},"53":{"id":53,"street":"Gleason Port","city":"Lake Mackenziefort","zipcode":"31428","geo":{"id":49,"lat":"-0.8313","lng":"81.7504"}},"54":{"id":54,"street":"Ressie Mission","city":"North Vinnie","zipcode":"48780-6471","geo":{"id":71,"lat":"-86.1163","lng":"34.3098"}},"55":{"id":55,"street":"Gislason Trail","city":"North Bonitafurt","zipcode":"28745","geo":{"id":19,"lat":"20.6381","lng":"158.5150"}},"56":{"id":56,"street":"Hermann Shoal","city":"Wellingtonmouth","zipcode":"30299-8300","geo":{"id":0,"lat":"28.0388","lng":"-49.1978"}},"57":{"id":57,"street":"Derick Freeway","city":"Lake Glennieshire","zipcode":"05789-2437","geo":{"id":78,"lat":"2.4819","lng":"116.2613"}},"58":{"id":58,"street":"Judge Valleys","city":"New Reta","zipcode":"27652","geo":{"id":99,"lat":"10.1348","lng":"-71.1774"}},"59":{"id":59,"street":"Markus Extension","city":"Macejkovicfurt","zipcode":"90518","geo":{"id":3,"lat":"62.9654","lng":"44.2105"}},"60":{"id":60,"street":"Cruickshank Glens","city":"Lake Dax","zipcode":"92353-9421","geo":{"id":15,"lat":"-9.7722","lng":"-76.0459"}},"61":{"id":61,"street":"Shawn Trafficway","city":"Port Jessyca","zipcode":"55447-4422","geo":{"id":41,"lat":"21.1680","lng":"-179.7979"}},"62":{"id":62,"street":"Wehner Union","city":"Bahringerfurt","zipcode":"95604-4411","geo":{"id":28,"lat":"79.5632","lng":"-133.1303"}},"63":{"id":63,"street":"Trantow Vista","city":"Weberberg","zipcode":"09365-7622","geo":{"id":69,"lat":"87.2451","lng":"-140.6054"}},"64":{"id":64,"street":"Gorczany Falls","city":"Port Evangeline","zipcode":"75527-6694","geo":{"id":25,"lat":"-84.4072","lng":"-59.7428"}},"65":{"id":65,"street":"Stroman Haven","city":"Jocelynside","zipcode":"86027-6636","geo":{"id":13,"lat":"-33.1630","lng":"77.1126"}},"66":{"id":66,"street":"Sauer Summit","city":"Haydenport","zipcode":"34559","geo":{"id":33,"lat":"89.2783","lng":"1.3571"}},"67":{"id":67,"street":"Lennie Spur","city":"Marilynefurt","zipcode":"70333-1478","geo":{"id":24,"lat":"39.7298","lng":"-116.6987"}},"68":{"id":68,"street":"Mayert Radial","city":"Nicolasshire","zipcode":"45788","geo":{"id":60,"lat":"57.9049","lng":"-39.2324"}},"69":{"id":69,"street":"Leonel Locks","city":"East Christatown","zipcode":"63033","geo":{"id":34,"lat":"-58.7103","lng":"102.2228"}},"70":{"id":70,"street":"Salma Falls","city":"Port Lolafurt","zipcode":"85378","geo":{"id":82,"lat":"-22.2585","lng":"28.9985"}},"71":{"id":71,"street":"Jamar Lake","city":"Maudieborough","zipcode":"45870-0523","geo":{"id":86,"lat":"-56.6158","lng":"137.5518"}},"72":{"id":72,"street":"Swift Park","city":"Port Marc","zipcode":"12504-7309","geo":{"id":6,"lat":"67.7262","lng":"-18.5822"}},"73":{"id":73,"street":"Ritchie Highway","city":"North Deangelo","zipcode":"08153-1110","geo":{"id":73,"lat":"-36.9763","lng":"141.9067"}},"74":{"id":74,"street":"Cruickshank Roads","city":"Stiedemannstad","zipcode":"60383-3094","geo":{"id":72,"lat":"-57.1875","lng":"-50.9831"}},"75":{"id":75,"street":"Loren Ridges","city":"North Electa","zipcode":"27380","geo":{"id":15,"lat":"80.5479","lng":"63.9311"}},"76":{"id":76,"street":"Hester Crescent","city":"West Korey","zipcode":"97501","geo":{"id":32,"lat":"-57.6342","lng":"166.5955"}},"77":{"id":77,"street":"Aimee Path","city":"Conroyhaven","zipcode":"71070-3127","geo":{"id":27,"lat":"73.8683","lng":"133.0454"}},"78":{"id":78,"street":"Von Shoal","city":"Port Tressa","zipcode":"01719","geo":{"id":54,"lat":"-17.6695","lng":"70.1078"}},"79":{"id":79,"street":"Olson Street","city":"New Jovany","zipcode":"41936","geo":{"id":69,"lat":"47.8198","lng":"-141.3229"}},"80":{"id":80,"street":"Aliyah Estate","city":"Violetteside","zipcode":"72638","geo":{"id":57,"lat":"34.0773","lng":"141.2695"}},"81":{"id":81,"street":"Fannie Isle","city":"South Camdenburgh","zipcode":"28017-2471","geo":{"id":70,"lat":"-7.0515","lng":"142.5514"}},"82":{"id":82,"street":"Santa Streets","city":"Port Freida","zipcode":"26307","geo":{"id":57,"lat":"57.6184","lng":"-22.6471"}},"83":{"id":83,"street":"Tara Inlet","city":"Solonport","zipcode":"29533-5862","geo":{"id":6,"lat":"-19.4820","lng":"-141.9901"}},"84":{"id":84,"street":"Brigitte Lock","city":"Maybellport","zipcode":"36185","geo":{"id":72,"lat":"-17.7226","lng":"-103.1933"}},"85":{"id":85,"street":"Keeling Corners","city":"South Darylview","zipcode":"31254","geo":{"id":15,"lat":"52.3067","lng":"85.7279"}},"86":{"id":86,"street":"Hollis Shores","city":"Port Kaylichester","zipcode":"57707","geo":{"id":71,"lat":"-42.6915","lng":"101.7385"}},"87":{"id":87,"street":"Stefanie Stravenue","city":"Reillybury","zipcode":"23042","geo":{"id":29,"lat":"-13.7865","lng":"-20.5268"}},"88":{"id":88,"street":"Kemmer Crossing","city":"Bergnaumville","zipcode":"20781-1996","geo":{"id":26,"lat":"82.5306","lng":"-160.5445"}},"89":{"id":89,"street":"Marquardt Rest","city":"Kutchberg","zipcode":"02290","geo":{"id":35,"lat":"1.0445","lng":"-123.6212"}},"90":{"id":90,"street":"Opal Camp","city":"Weissnathaven","zipcode":"77110","geo":{"id":93,"lat":"23.3239","lng":"110.3660"}},"91":{"id":91,"street":"Stokes Avenue","city":"South Jennings","zipcode":"73259-9354","geo":{"id":79,"lat":"22.7773","lng":"133.6666"}},"92":{"id":92,"street":"Pfannerstill Underpass","city":"Garrettland","zipcode":"28010-4256","geo":{"id":56,"lat":"86.2279","lng":"60.2357"}},"93":{"id":93,"street":"Kassulke Crescent","city":"South Kameron","zipcode":"48110","geo":{"id":17,"lat":"21.1246","lng":"142.9844"}},"94":{"id":94,"street":"Mills Ports","city":"Alfborough","zipcode":"59291-4199","geo":{"id":80,"lat":"52.6520","lng":"49.6413"}},"95":{"id":95,"street":"Darion Lodge","city":"Daisyburgh","zipcode":"30906","geo":{"id":14,"lat":"-67.8255","lng":"-59.8652"}},"96":{"id":96,"street":"Virginie Isle","city":"Lake Robertview","zipcode":"52913","geo":{"id":19,"lat":"-89.9977","lng":"142.7985"}},"97":{"id":97,"street":"Jacynthe Freeway","city":"Kariberg","zipcode":"54371-8927","geo":{"id":75,"lat":"-8.7533","lng":"3.5979"}},"98":{"id":98,"street":"Shannon Estates","city":"South Bertram","zipcode":"01588-4072","geo":{"id":5,"lat":"-32.8077","lng":"-34.9906"}},"99":{"id":99,"street":"Stanton Garden","city":"Lake Clifton","zipcode":"07411","geo":{"id":85,"lat":"39.1646","lng":"-40.8361"}}}