{"0":{"id":0,"street":"Emard Summit","city":"Port Cristopherberg","zipcode":"09256","geo":{"id":56,"lat":"-24.1569","lng":"168.5131"}},"1":{"id":1,"street":"Ethelyn Dale","city":"North Devonteborough","zipcode":"24753","geo":{"id":40,"lat":"-33.4310","lng":"-99.0572"}},"2":{"id":2,"street":"Ora Gateway","city":"Krajcikbury","zipcode":"42378-3318","geo":{"id":64,"lat":"-19.6409","lng":"-38.3738"}},"3":{"id":3,"street":"Naomi Rest","city":"New Pascaleview","zipcode":"32115-2291","geo":{"id":62,"lat":"35.0659","lng":"-130.8428"}},"4":{"id":4,"street":"Kali Forks","city":"North Mafalda","zipcode":"65140","geo":{"id":89,"lat":"1.9886","lng":"159.6662"}},"5":{"id":5,"street":"Morris Coves","city":"East Demond","zipcode":"11839","geo":{"id":12,"lat":"-68.6152","lng":"-3.2810"}},"6":{"id":6,"street":"Koelpin Cove","city":"Burniceview","zipcode":"08994-1153","geo":{"id":18,"lat":"-52.4658","lng":"15.8915"}},"7":{"id":7,"street":"Roderick Island","city":"Lake Judyfurt","zipcode":"93680-3276","geo":{"id":81,"lat":"85.1888","lng":"70.6390"}},"8":{"id":8,"street":"Zachary Coves","city":"Abigaleborough","zipcode":"80604-4503","geo":{"id":11,"lat":"6.4177","lng":"-39.6806"}},"9":{"id":9,"street":"Celestine Common","city":"Zacharyshire","zipcode":"49864-0048","geo":{"id":73,"lat":"57.6177","lng":"143.6970"}},"10":{"id":10,"street":"Autumn Village","city":"New Masonfort","zipcode":"24729","geo":{"id":15,"lat":"-72.3514","lng":"-158.9254"}},"11":{"id":11,"street":"Eriberto Rapids","city":"Port Roxanne","zipcode":"83738","geo":{"id":29,"lat":"-0.2923","lng":"30.8332"}},"12":{"id":12,"street":"Hauck Islands","city":"Port Marquesland","zipcode":"53319","geo":{"id":25,"lat":"-15.2632","lng":"-151.9062"}},"13":{"id":13,"street":"Hartmann Forge","city":"Lake Staceyberg","zipcode":"76559-3403","geo":{"id":96,"lat":"-73.0381","lng":"-151.0907"}},"14":{"id":14,"street":"Oswald Forge","city":"Port Bentonberg","zipcode":"65267","geo":{"id":55,"lat":"-27.1748","lng":"-161.6291"}},"15":{"id":15,"street":"Luz Centers","city":"Darwinmouth","zipcode":"28021-6836","geo":{"id":34,"lat":"2.1196","lng":"12.0668"}},"16":{"id":16,"street":"Camila Flats","city":"Port Electa","zipcode":"91340","geo":{"id":50,"lat":"76.8610","lng":"-49.8289"}},"17":{"id":17,"street":"Jordi Lodge","city":"Rachelleton","zipcode":"01738","geo":{"id":58,"lat":"1.9312","lng":"-165.0905"}},"18":{"id":18,"street":"Larson Forges","city":"Rueckerborough","zipcode":"84547","geo":{"id":84,"lat":"66.0966","lng":"-69.9811"}},"19":{"id":19,"street":"Clyde Cape","city":"South Janechester","zipcode":"06266-3451","geo":{"id":21,"lat":"89.1562","lng":"150.4602"}},"20":{"id":20,"street":"Halle Fords","city":"North Mac","zipcode":"52650-7215","geo":{"id":72,"lat":"89.2029","lng":"129.4422"}},"21":{"id":21,"street":"Edyth Street","city":"Michaelahaven","zipcode":"96805","geo":{"id":89,"lat":"-26.0154","lng":"-8.1988"}},"22":{"id":22,"street":"Elna Circles","city":"Lake Sylvester","zipcode":"20692-5486","geo":{"id":95,"lat":"-54.2930","lng":"52.9431"}},"23":{"id":23,"street":"Heath Roads","city":"Muhammadhaven","zipcode":"29744","geo":{"id":6,"lat":"55.6738","lng":"172.9828"}},"24":{"id":24,"street":"Rolfson Prairie","city":"New Hersheltown","zipcode":"16989-1897","geo":{"id":75,"lat":"44.1145","lng":"29.0895"}},"25":{"id":25,"street":"Stanton Extensions","city":"Lake Billytown","zipcode":"71693","geo":{"id":33,"lat":"-35.0374","lng":"38.5725"}},"26":{"id":26,"street":"Clifton Union","city":"Kerlukebury","zipcode":"84952-5717","geo":{"id":98,"lat":"81.4588","lng":"-1.1908"}},"27":{"id":27,"street":"Brent Radial","city":"Lake Marianoberg","zipcode":"59697","geo":{"id":2,"lat":"-34.5240","lng":"-162.3279"}},"28":{"id":28,"street":"Gaston Plains","city":"Lake Lisandroberg","zipcode":"07247","geo":{"id":64,"lat":"-72.4424","lng":"-101.7090"}},"29":{"id":29,"street":"Bernice Isle","city":"O'Reillyville","zipcode":"89311","geo":{"id":83,"lat":"85.9013","lng":"-126.0519"}},"30":{"id":30,"street":"Oliver Freeway","city":"Powlowskimouth","zipcode":"12423-2979","geo":{"id":94,"lat":"70.7673","lng":"-22.4485"}},"31":{"id":31,"street":"Tina Streets","city":"Reaganmouth","zipcode":"42382","geo":{"id":84,"lat":"-72.6907","lng":"60.4857"}},"32":{"id":32,"street":"Abby Ports","city":"Stephanbury","zipcode":"46977-8318","geo":{"id":54,"lat":"-53.6394","lng":"70.2513"}},"33":{"id":33,"street":"Sydney Springs","city":"East Lizeth","zipcode":"02627-4746","geo":{"id":46,"lat":"-19.0337","lng":"56.8970"}},"34":{"id":34,"street":"Bergstrom Road","city":"Abernathyhaven","zipcode":"54167-7418","geo":{"id":58,"lat":"-12.6073","lng":"-59.5797"}},"35":{"id":35,"street":"Hilario Expressway","city":"Port Clintside","zipcode":"68853","geo":{"id":37,"lat":"66.8494","lng":"-47.9488"}},"36":{"id":36,"street":"Yundt Spurs","city":"West Zechariah","zipcode":"91177","geo":{"id":83,"lat":"-31.2073","lng":"-45.9297"}},"37":{"id":37,"street":"Runolfsson Port","city":"Henrimouth","zipcode":"19028-8510","geo":{"id":67,"lat":"15.6493","lng":"19.1046"}},"38":{"id":38,"street":"Labadie Harbor","city":"Lindgrenland","zipcode":"55785","geo":{"id":95,"lat":"22.3796","lng":"-163.5018"}},"39":{"id":39,"street":"O'Reilly Forge","city":"Makaylaton","zipcode":"60845","geo":{"id":20,"lat":"51.4952","lng":"-19.5807"}},"40":{"id":40,"street":"Maymie Spur","city":"West Novella","zipcode":"23803-7026","geo":{"id":65,"lat":"30.6208","lng":"149.1760"}},"41":{"id":41,"street":"Hunter Valleys","city":"Port Piperchester","zipcode":"05034-7129","geo":{"id":67,"lat":"14.4809","lng":"158.3261"}},"42":{"id":42,"street":"Guy Forge","city":"Lake Jarrett","zipcode":"46114","geo":{"id":3,"lat":"-70.3290","lng":"-35.1753"}},"43":{"id":43,"street":"Jillian Lodge","city":"Lake Elisabeth","zipcode":"91148-6160","geo":{"id":17,"lat":"-38.5340","lng":"-95.5595"}},"44":{"id":44,"street":"Orie Inlet","city":"Boylemouth","zipcode":"74474","geo":{"id":94,"lat":"65.2389","lng":"179.0191"}},"45":{"id":45,"street":"Brannon Forest","city":"Lorifurt","zipcode":"21292","geo":{"id":22,"lat":"36.4763","lng":"173.4404"}},"46":{"id":46,"street":"Thompson Camp","city":"Strackeside","zipcode":"32385-7599","geo":{"id":99,"lat":"-86.5663","lng":"161.2504"}},"47":{"id":47,"street":"Luettgen Valleys","city":"West Eusebio","zipcode":"70838","geo":{"id":31,"lat":"27.5044","lng":"-20.3531"}},"48":{"id":48,"street":"Shanahan Shores","city":"New Destiniberg","zipcode":"00416","geo":{"id":100,"lat":"-1.4855","lng":"-114.0571"}},"49":{"id":49,"street":"Rowan Underpass","city":"Kesslermouth","zipcode":"47914-2772","geo":{"id":55,"lat":"-15.1047","lng":"48.1097"}},"50":{"id":50,"street":"Gutmann Village","city":"Hermanmouth","zipcode":"35141-0352","geo":{"id":96,"lat":"31.3843","lng":"122.7395"}},"51":{"id":51,"street":"Doyle Views","city":"Schillerfurt","zipcode":"82297-6273","geo":{"id":48,"lat":"-32.6692","lng":"174.0095"}},"52":{"id":52,"street":"Geovanni Drives","city":"Kattieton","zipcode":"08172-1292","geo":{"id":87,"lat":"-41.2918","lng":"-121.3094"}},"53":{"id":53,"street":"Feeney Viaduct","city":"Lake Darren","zipcode":"23932","geo":{"id":34,"lat":"-66.2690","lng":"-85.0582"}},"54":{"id":54,"street":"Effie Centers","city":"Kamrentown","zipcode":"00143-7137","geo":{"id":57,"lat":"-32.4892","lng":"126.1759"}},"55":{"id":55,"street":"Jerde Meadow","city":"Doyleburgh","zipcode":"17235-3336","geo":{"id":38,"lat":"64.6686","lng":"131.1487"}},"56":{"id":56,"street":"Crona Pine","city":"Funkstad","zipcode":"61796","geo":{"id":61,"lat":"68.8001","lng":"-116.2270"}},"57":{"id":57,"street":"Emmett Cliffs","city":"Ramonshire","zipcode":"28875","geo":{"id":94,"lat":"6.4756","lng":"113.6037"}},"58":{"id":58,"street":"Larson Rest","city":"Leschmouth","zipcode":"38431-3161","geo":{"id":61,"lat":"45.2274","lng":"27.2220"}},"59":{"id":59,"street":"Thiel Highway","city":"South Robbburgh","zipcode":"61908","geo":{"id":23,"lat":"-47.5489","lng":"176.9045"}},"60":{"id":60,"street":"Fay Station","city":"Spinkamouth","zipcode":"77463","geo":{"id":57,"lat":"35.2519","lng":"-3.5693"}},"61":{"id":61,"street":"Vickie Curve","city":"Nadiaberg","zipcode":"35570-7171","geo":{"id":5,"lat":"-89.2304","lng":"18.6328"}},"62":{"id":62,"street":"Odessa Trail","city":"Torphyside","zipcode":"07769-4220","geo":{"id":61,"lat":"-57.7384","lng":"-159.9050"}},"63":{"id":63,"street":"Xander Stravenue","city":"Spinkafort","zipcode":"85737","geo":{"id":3,"lat":"-47.5095","lng":"150.0374"}},"64":{"id":64,"street":"Sedrick Gardens","city":"Averyland","zipcode":"51760-5755","geo":{"id":100,"lat":"11.5831","lng":"-118.7738"}},"65":{"id":65,"street":"Sanford Stream","city":"West Vernonmouth","zipcode":"90937","geo":{"id":10,"lat":"60.4015","lng":"78.0461"}},"66":{"id":66,"street":"Virgil Ports","city":"North Antoinetteland","zipcode":"48237","geo":{"id":77,"lat":"-88.8640","lng":"-94.6320"}},"67":{"id":67,"street":"Kuhlman Cove","city":"South Audreyton","zipcode":"03336-8940","geo":{"id":98,"lat":"-4.2778","lng":"-27.7737"}},"68":{"id":68,"street":"O'Reilly Curve","city":"Bergnaumview","zipcode":"25228","geo":{"id":18,"lat":"80.9953","lng":"114.9895"}},"69":{"id":69,"street":"Sedrick River","city":"Ethanside","zipcode":"52962","geo":{"id":100,"lat":"-41.6337","lng":"133.9232"}},"70":{"id":70,"street":"Brady Plain","city":"West Coralie","zipcode":"10782","geo":{"id":9,"lat":"46.9811","lng":"-157.6392"}},"71":{"id":71,"street":"Shania Plaza","city":"Fernside","zipcode":"56106","geo":{"id":27,"lat":"45.4997","lng":"159.6630"}},"72":{"id":72,"street":"Ciara Throughway","city":"Seamushaven","zipcode":"76244","geo":{"id":71,"lat":"-75.9822","lng":"66.9728"}},"73":{"id":73,"street":"Abbigail Estate","city":"Carymouth","zipcode":"88030-6548","geo":{"id":1,"lat":"1.2633","lng":"35.7913"}},"74":{"id":74,"street":"Beatty Bypass","city":"Schoenstad","zipcode":"58445-9605","geo":{"id":88,"lat":"68.5582","lng":"147.4020"}},"75":{"id":75,"street":"Dooley Locks","city":"Hayesfurt","zipcode":"15416","geo":{"id":8,"lat":"-3.8193","lng":"13.5582"}},"76":{"id":76,"street":"Lawrence Lights","city":"North Sanfordhaven","zipcode":"98502","geo":{"id":54,"lat":"-64.8515","lng":"168.9762"}},"77":{"id":77,"street":"Heathcote Manor","city":"West Mariano","zipcode":"41463","geo":{"id":67,"lat":"56.3607","lng":"90.9382"}},"78":{"id":78,"street":"Prudence Flats","city":"Adelamouth","zipcode":"98157-3772","geo":{"id":15,"lat":"81.4327","lng":"-96.4604"}},"79":{"id":79,"street":"Batz Summit","city":"Everardoburgh","zipcode":"09957-1923","geo":{"id":65,"lat":"5.4392","lng":"-155.3765"}},"80":{"id":80,"street":"Jodie Circles","city":"Port Dinastad","zipcode":"23146","geo":{"id":32,"lat":"-86.7699","lng":"-108.7631"}},"81":{"id":81,"street":"Runte Courts","city":"East Cliffordstad","zipcode":"33247","geo":{"id":89,"lat":"55.8571","lng":"122.2347"}},"82":{"id":82,"street":"Conn Wall","city":"South Napoleonport","zipcode":"70133","geo":{"id":82,"lat":"31.1708","lng":"122.9631"}},"83":{"id":83,"street":"Walker Oval","city":"Port Kathlyn","zipcode":"75347-3093","geo":{"id":81,"lat":"51.4985","lng":"-120.3905"}},"84":{"id":84,"street":"Hudson Village","city":"New Georgefort","zipcode":"07552-7134","geo":{"id":66,"lat":"-12.7793","lng":"17.3766"}},"85":{"id":85,"street":"Bartoletti Well","city":"Stacyshire","zipcode":"80359","geo":{"id":48,"lat":"-44.1302","lng":"-72.5467"}},"86":{"id":86,"street":"Crist Branch","city":"Orashire","zipcode":"45201-3268","geo":{"id":26,"lat":"47.4716","lng":"29.1030"}},"87":{"id":87,"street":"Marvin Glens","city":"East Jacques","zipcode":"74820","geo":{"id":97,"lat":"-70.9063","lng":"130.0673"}},"88":{"id":88,"street":"Donnelly Hills","city":"Schusterton","zipcode":"71210-6070","geo":{"id":25,"lat":"26.9222","lng":"44.8455"}},"89":{"id":89,"street":"Terrell Rue","city":"North Tyreseberg","zipcode":"89362-9028","geo":{"id":22,"lat":"71.5805","lng":"-116.4734"}},"90":{"id":90,"street":"Witting Alley","city":"West Kallie","zipcode":"54853","geo":{"id":40,"lat":"66.9846","lng":"58.3573"}},"91":{"id":91,"street":"Scarlett Plaza","city":"East Nasirborough","zipcode":"85543","geo":{"id":91,"lat":"18.3627","lng":"89.6491"}},"92":{"id":92,"street":"Feeney Freeway","city":"Jarodmouth","zipcode":"84793","geo":{"id":92,"lat":"65.8418","lng":"19.3322"}},"93":{"id":93,"street":"Stella Village","city":"Lake Devinberg","zipcode":"11184","geo":{"id":2,"lat":"83.4093","lng":"-39.1111"}},"94":{"id":94,"street":"Timothy Stream","city":"Lake Leopoldchester","zipcode":"38254-7054","geo":{"id":60,"lat":"61.7437","lng":"-165.9415"}},"95":{"id":95,"street":"Jaime Plains","city":"Schoenport","zipcode":"03717-3860","geo":{"id":88,"lat":"-20.3528","lng":"111.3296"}},"96":{"id":96,"street":"Collier Locks","city":"Lake Robynhaven","zipcode":"05784-5161","geo":{"id":77,"lat":"-74.9040","lng":"105.8348"}},"97":{"id":97,"street":"Gino Squares","city":"McCulloughbury","zipcode":"62841-9836","geo":{"id":98,"lat":"-83.3210","lng":"-97.0577"}},"98":{"id":98,"street":"Ike Course","city":"Satterfieldmouth","zipcode":"60667","geo":{"id":36,"lat":"-74.3079","lng":"7.0837"}},"99":{"id":99,"street":"Henri Views","city":"North Ricoshire","zipcode":"94783-3961","geo":{"id":54,"lat":"16.5039","lng":"44.6204"}}}