{"0":{"id":0,"street":"Helga Union","city":"North Cliftonside","zipcode":"04680-6481","geo":{"id":96,"lat":"-28.3673","lng":"111.1233"}},"1":{"id":1,"street":"O'Reilly Stream","city":"North Frances","zipcode":"90627-8506","geo":{"id":39,"lat":"-86.7929","lng":"-8.5852"}},"2":{"id":2,"street":"Bryon Neck","city":"Lake Rigobertostad","zipcode":"91084","geo":{"id":77,"lat":"-24.4666","lng":"13.6810"}},"3":{"id":3,"street":"Emmerich Forks","city":"Jamalfurt","zipcode":"42263-0477","geo":{"id":35,"lat":"-50.8860","lng":"96.7339"}},"4":{"id":4,"street":"Rau Bypass","city":"South Clovisside","zipcode":"10007","geo":{"id":90,"lat":"30.0280","lng":"-129.5318"}},"5":{"id":5,"street":"Eula Parkways","city":"Port Abraham","zipcode":"70663-6870","geo":{"id":3,"lat":"36.7973","lng":"-162.2082"}},"6":{"id":6,"street":"Labadie Walk","city":"Nolanmouth","zipcode":"96953","geo":{"id":14,"lat":"-3.0224","lng":"2.1564"}},"7":{"id":7,"street":"Cartwright Green","city":"North Jordan","zipcode":"31293-8006","geo":{"id":49,"lat":"-35.4672","lng":"47.3705"}},"8":{"id":8,"street":"Waelchi Brooks","city":"Olgahaven","zipcode":"90140","geo":{"id":94,"lat":"-46.7368","lng":"51.5939"}},"9":{"id":9,"street":"Anabelle Tunnel","city":"Wisozkbury","zipcode":"57093","geo":{"id":22,"lat":"79.9809","lng":"106.6512"}},"10":{"id":10,"street":"Darren Track","city":"North Sydniborough","zipcode":"76482-5877","geo":{"id":93,"lat":"31.8066","lng":"-22.6608"}},"11":{"id":11,"street":"Cheyenne Island","city":"Lake Jeromyport","zipcode":"99649-5455","geo":{"id":16,"lat":"-2.9636","lng":"-124.9245"}},"12":{"id":12,"street":"Huels Via","city":"Schroederfort","zipcode":"78925-5956","geo":{"id":87,"lat":"35.4909","lng":"-1.2050"}},"13":{"id":13,"street":"Heller Oval","city":"East Candidafurt","zipcode":"30410-7243","geo":{"id":58,"lat":"51.5898","lng":"-120.7207"}},"14":{"id":14,"street":"Huel Shoal","city":"South Lueville","zipcode":"32547","geo":{"id":4,"lat":"87.0057","lng":"68.3115"}},"15":{"id":15,"street":"Lucienne Field","city":"Lindgrenview","zipcode":"18811","geo":{"id":45,"lat":"17.6778","lng":"109.1958"}},"16":{"id":16,"street":"Beulah Prairie","city":"Port Corteztown","zipcode":"94819-5898","geo":{"id":11,"lat":"-42.5460","lng":"-170.4059"}},"17":{"id":17,"street":"Gaylord Cape","city":"Port Opalberg","zipcode":"60371","geo":{"id":11,"lat":"-81.3946","lng":"-163.9862"}},"18":{"id":18,"street":"Grover Glens","city":"Rodrigueztown","zipcode":"17153","geo":{"id":63,"lat":"-11.8639","lng":"-158.4628"}},"19":{"id":19,"street":"King Fort","city":"North Selmer","zipcode":"43082","geo":{"id":73,"lat":"-89.9838","lng":"-31.9648"}},"20":{"id":20,"street":"O'Conner Springs","city":"South Karlichester","zipcode":"71936","geo":{"id":76,"lat":"-8.2353","lng":"132.3169"}},"21":{"id":21,"street":"Carter Ferry","city":"Ortizburgh","zipcode":"43807","geo":{"id":58,"lat":"-87.4293","lng":"168.8789"}},"22":{"id":22,"street":"Jast Motorway","city":"North Gerardshire","zipcode":"17049","geo":{"id":18,"lat":"-8.1556","lng":"-26.6532"}},"23":{"id":23,"street":"Erdman Mission","city":"South Esmeralda","zipcode":"43903","geo":{"id":30,"lat":"-47.8448","lng":"42.2578"}},"24":{"id":24,"street":"Jessyca Prairie","city":"Lenoramouth","zipcode":"31715","geo":{"id":78,"lat":"74.6518","lng":"31.3365"}},"25":{"id":25,"street":"Block Center","city":"North Johnny","zipcode":"12686-5228","geo":{"id":34,"lat":"-42.7029","lng":"-156.7316"}},"26":{"id":26,"street":"Stoltenberg Vista","city":"East Tyriquemouth","zipcode":"99063-3881","geo":{"id":79,"lat":"42.8645","lng":"177.9256"}},"27":{"id":27,"street":"Borer Ridges","city":"Terenceside","zipcode":"14874-3111","geo":{"id":100,"lat":"82.3477","lng":"156.1696"}},"28":{"id":28,"street":"Adriel Rapid","city":"Luetown","zipcode":"91876-2819","geo":{"id":83,"lat":"89.8903","lng":"-13.3330"}},"29":{"id":29,"street":"Conn Oval","city":"East Gillianfurt","zipcode":"83706","geo":{"id":49,"lat":"41.6823","lng":"159.7539"}},"30":{"id":30,"street":"Gaylord Falls","city":"Keelinghaven","zipcode":"14282","geo":{"id":29,"lat":"-0.0625","lng":"-39.1944"}},"31":{"id":31,"street":"Erdman Ridges","city":"Dinamouth","zipcode":"47608-5451","geo":{"id":54,"lat":"-38.0985","lng":"85.5461"}},"32":{"id":32,"street":"Catharine Square","city":"Wilsonton","zipcode":"50122","geo":{"id":74,"lat":"-13.1312","lng":"-120.5935"}},"33":{"id":33,"street":"Hessel Trail","city":"Lake Berneice","zipcode":"27711","geo":{"id":23,"lat":"9.7578","lng":"16.9676"}},"34":{"id":34,"street":"Titus Locks","city":"New Jonton","zipcode":"64513","geo":{"id":14,"lat":"10.2291","lng":"-91.1528"}},"35":{"id":35,"street":"Little Streets","city":"East Ferne","zipcode":"46953","geo":{"id":17,"lat":"45.9299","lng":"-63.9710"}},"36":{"id":36,"street":"Makenzie Point","city":"West Mayeborough","zipcode":"58129","geo":{"id":52,"lat":"-70.1484","lng":"124.0006"}},"37":{"id":37,"street":"Lakin Trail","city":"Kleinburgh","zipcode":"58386-3293","geo":{"id":13,"lat":"-61.7139","lng":"-55.1025"}},"38":{"id":38,"street":"Gianni Terrace","city":"Port Rhoda","zipcode":"28655-2163","geo":{"id":1,"lat":"13.1847","lng":"-153.0382"}},"39":{"id":39,"street":"Smith Flats","city":"South Russmouth","zipcode":"71747","geo":{"id":75,"lat":"-4.1710","lng":"56.5287"}},"40":{"id":40,"street":"Garth Street","city":"Lake Naomie","zipcode":"38613-5885","geo":{"id":37,"lat":"46.2792","lng":"92.9244"}},"41":{"id":41,"street":"Boyer Corners","city":"Brodystad","zipcode":"24743-4245","geo":{"id":82,"lat":"-42.8879","lng":"-150.8117"}},"42":{"id":42,"street":"Mitchell Centers","city":"Jaylenview","zipcode":"92698","geo":{"id":6,"lat":"53.8059","lng":"-147.2159"}},"43":{"id":43,"street":"Baumbach Rue","city":"Coleville","zipcode":"58993","geo":{"id":49,"lat":"22.4325","lng":"-33.6991"}},"44":{"id":44,"street":"Muller Estate","city":"Alexside","zipcode":"85135","geo":{"id":83,"lat":"-85.8379","lng":"26.1132"}},"45":{"id":45,"street":"Colin Island","city":"Lake Freddieburgh","zipcode":"24979","geo":{"id":19,"lat":"-60.1877","lng":"-170.0179"}},"46":{"id":46,"street":"Antwan Ville","city":"Buckville","zipcode":"73274","geo":{"id":88,"lat":"-65.6649","lng":"-97.5249"}},"47":{"id":47,"street":"Doug Shoal","city":"West Elyssa","zipcode":"64006-3944","geo":{"id":84,"lat":"80.0847","lng":"86.4295"}},"48":{"id":48,"street":"Camden Islands","city":"Gleasonside","zipcode":"60843-6540","geo":{"id":79,"lat":"-42.9325","lng":"25.1991"}},"49":{"id":49,"street":"Heaney Brooks","city":"Carrollville","zipcode":"74741","geo":{"id":63,"lat":"-12.5569","lng":"-170.1914"}},"50":{"id":50,"street":"Bailey Cape","city":"New Viola","zipcode":"10392","geo":{"id":5,"lat":"0.1195","lng":"174.3776"}},"51":{"id":51,"street":"Crona Island","city":"North Oscar","zipcode":"01828-1604","geo":{"id":51,"lat":"-42.4433","lng":"-170.1085"}},"52":{"id":52,"street":"Rebekah Canyon","city":"Lake Kayceetown","zipcode":"14798-8573","geo":{"id":80,"lat":"-74.4915","lng":"72.3966"}},"53":{"id":53,"street":"Gerlach Circles","city":"South Janeville","zipcode":"49510","geo":{"id":34,"lat":"40.2806","lng":"-171.2576"}},"54":{"id":54,"street":"Keeling Canyon","city":"Clementinahaven","zipcode":"41641","geo":{"id":6,"lat":"-65.4769","lng":"113.7384"}},"55":{"id":55,"street":"Gorczany Island","city":"Lake Taliaborough","zipcode":"20296-9365","geo":{"id":25,"lat":"-62.9887","lng":"173.8617"}},"56":{"id":56,"street":"Tillman Ways","city":"Ankundingland","zipcode":"19573-9114","geo":{"id":11,"lat":"-66.3276","lng":"173.4539"}},"57":{"id":57,"street":"Mark Highway","city":"Port Margeshire","zipcode":"86058-6983","geo":{"id":79,"lat":"68.6749","lng":"53.0130"}},"58":{"id":58,"street":"Allene Extensions","city":"South Anderson","zipcode":"22124","geo":{"id":1,"lat":"76.3278","lng":"-170.0874"}},"59":{"id":59,"street":"Lorna Way","city":"South Blanchestad","zipcode":"31682-0623","geo":{"id":73,"lat":"-43.7854","lng":"-50.1191"}},"60":{"id":60,"street":"Larson Plaza","city":"Ricefort","zipcode":"60522-3721","geo":{"id":7,"lat":"-32.0401","lng":"-16.6150"}},"61":{"id":61,"street":"Simonis Parkways","city":"Gladysshire","zipcode":"76337","geo":{"id":80,"lat":"-84.1854","lng":"-44.6503"}},"62":{"id":62,"street":"Wyman Junctions","city":"Fishershire","zipcode":"14746","geo":{"id":46,"lat":"-19.5126","lng":"135.1005"}},"63":{"id":63,"street":"Adrienne Ville","city":"East Edmund","zipcode":"58550-4137","geo":{"id":49,"lat":"-52.6355","lng":"13.1638"}},"64":{"id":64,"street":"Johnston Pike","city":"Lake Pansyburgh","zipcode":"74748","geo":{"id":69,"lat":"-76.2237","lng":"-43.1072"}},"65":{"id":65,"street":"Adrain Burgs","city":"Boyertown","zipcode":"99168-6008","geo":{"id":92,"lat":"-27.0678","lng":"-132.3006"}},"66":{"id":66,"street":"Hilpert Points","city":"East Tamia","zipcode":"87841","geo":{"id":2,"lat":"34.6055","lng":"50.6437"}},"67":{"id":67,"street":"Hettinger Via","city":"Lake Haylieborough","zipcode":"29219","geo":{"id":29,"lat":"-54.9883","lng":"-59.9316"}},"68":{"id":68,"street":"Myles Crossing","city":"East Wilbertchester","zipcode":"57540","geo":{"id":22,"lat":"21.5998","lng":"38.9329"}},"69":{"id":69,"street":"Dahlia Locks","city":"Andersonberg","zipcode":"78824-6653","geo":{"id":24,"lat":"-32.7079","lng":"-39.8203"}},"70":{"id":70,"street":"Schroeder Drives","city":"North Revamouth","zipcode":"90934","geo":{"id":46,"lat":"39.2610","lng":"-169.2796"}},"71":{"id":71,"street":"Leopold Rest","city":"Port Bellahaven","zipcode":"91763","geo":{"id":60,"lat":"-16.7757","lng":"-165.7190"}},"72":{"id":72,"street":"Felicia Lane","city":"Lake Ora","zipcode":"42243-9402","geo":{"id":16,"lat":"-51.1648","lng":"-4.2548"}},"73":{"id":73,"street":"Christop Station","city":"Pourosville","zipcode":"29922","geo":{"id":51,"lat":"6.8369","lng":"47.5060"}},"74":{"id":74,"street":"Izabella Haven","city":"East Jessymouth","zipcode":"10242-2640","geo":{"id":73,"lat":"-39.2077","lng":"88.0402"}},"75":{"id":75,"street":"Hilll Square","city":"South Wallacefort","zipcode":"22157-8855","geo":{"id":66,"lat":"19.4285","lng":"-73.9260"}},"76":{"id":76,"street":"Schoen Camp","city":"North Marianemouth","zipcode":"84892","geo":{"id":22,"lat":"55.3586","lng":"-149.1388"}},"77":{"id":77,"street":"Carmela Way","city":"Hyattport","zipcode":"32632-4723","geo":{"id":37,"lat":"-47.5589","lng":"-162.1233"}},"78":{"id":78,"street":"Harris Island","city":"Prohaskaborough","zipcode":"39082","geo":{"id":50,"lat":"-25.5943","lng":"-159.3945"}},"79":{"id":79,"street":"Julianne Harbors","city":"South Roscoe","zipcode":"76613","geo":{"id":90,"lat":"-72.7977","lng":"151.0711"}},"80":{"id":80,"street":"Trantow Rapids","city":"New Orvilleberg","zipcode":"89293","geo":{"id":2,"lat":"75.8426","lng":"-73.2629"}},"81":{"id":81,"street":"Jake Glens","city":"North Titus","zipcode":"44073","geo":{"id":67,"lat":"18.5584","lng":"149.9307"}},"82":{"id":82,"street":"Purdy Plaza","city":"Emmanuelleberg","zipcode":"86024","geo":{"id":86,"lat":"49.9447","lng":"20.0813"}},"83":{"id":83,"street":"Bartoletti Trafficway","city":"West Cassandra","zipcode":"56285-1261","geo":{"id":96,"lat":"-55.1456","lng":"68.6490"}},"84":{"id":84,"street":"Bud Glen","city":"Port Amara","zipcode":"53215-6471","geo":{"id":51,"lat":"-62.5902","lng":"144.0849"}},"85":{"id":85,"street":"Horacio Plaza","city":"Brownville","zipcode":"84888-7400","geo":{"id":41,"lat":"-42.3269","lng":"98.6021"}},"86":{"id":86,"street":"Linda Garden","city":"New Fionaberg","zipcode":"24775-3389","geo":{"id":49,"lat":"-54.1683","lng":"-119.3213"}},"87":{"id":87,"street":"Earnestine Estates","city":"Garettburgh","zipcode":"30685-2102","geo":{"id":44,"lat":"10.5291","lng":"148.1582"}},"88":{"id":88,"street":"Stiedemann Summit","city":"East Oliver","zipcode":"74634-8074","geo":{"id":71,"lat":"-61.7155","lng":"16.8025"}},"89":{"id":89,"street":"Littel Tunnel","city":"Zackaryside","zipcode":"03548","geo":{"id":21,"lat":"13.7406","lng":"175.6100"}},"90":{"id":90,"street":"Nitzsche Tunnel","city":"East Reinholdmouth","zipcode":"83709-6713","geo":{"id":34,"lat":"6.4119","lng":"166.9747"}},"91":{"id":91,"street":"Armstrong Plain","city":"East Keenan","zipcode":"24198-2360","geo":{"id":91,"lat":"-5.9744","lng":"-100.6177"}},"92":{"id":92,"street":"Lesly Walk","city":"Briaville","zipcode":"33972-8112","geo":{"id":24,"lat":"-70.2222","lng":"80.8720"}},"93":{"id":93,"street":"Tremaine Light","city":"Larkinberg","zipcode":"65878-8196","geo":{"id":29,"lat":"-84.1152","lng":"42.3212"}},"94":{"id":94,"street":"Elwin Lodge","city":"Kassulketown","zipcode":"14581","geo":{"id":95,"lat":"-79.6483","lng":"-153.3439"}},"95":{"id":95,"street":"Dennis Motorway","city":"Kristatown","zipcode":"90028","geo":{"id":38,"lat":"88.3677","lng":"156.9591"}},"96":{"id":96,"street":"Kassulke Brook","city":"Jazlynfort","zipcode":"87654","geo":{"id":42,"lat":"18.0725","lng":"121.1070"}},"97":{"id":97,"street":"Stamm Courts","city":"New Johnathanside","zipcode":"29850-8335","geo":{"id":38,"lat":"33.1228","lng":"70.4158"}},"98":{"id":98,"street":"Adriel Keys","city":"South Calista","zipcode":"03185","geo":{"id":20,"lat":"81.1450","lng":"128.0910"}},"99":{"id":99,"street":"Pagac Terrace","city":"North Ophelia","zipcode":"55856-3181","geo":{"id":23,"lat":"-9.0019","lng":"5.7428"}}}