[{"id":0,"street":"Jarvis Squares","city":"West Amanda","zipcode":"52822","geo":{"id":26,"lat":"-73.3747","lng":"-40.8202"}},{"id":1,"street":"Jerad Ferry","city":"Schummmouth","zipcode":"39378","geo":{"id":83,"lat":"-85.9254","lng":"76.1068"}},{"id":2,"street":"Russell Greens","city":"New Jalenmouth","zipcode":"13360","geo":{"id":34,"lat":"59.7018","lng":"132.4293"}},{"id":3,"street":"Idella Port","city":"Lake Jamey","zipcode":"39721-4046","geo":{"id":28,"lat":"57.0538","lng":"-74.4558"}},{"id":4,"street":"Aaron Flat","city":"New Maybell","zipcode":"11180","geo":{"id":98,"lat":"75.7028","lng":"10.0274"}},{"id":5,"street":"Jackeline Loop","city":"Ornborough","zipcode":"78591","geo":{"id":19,"lat":"10.7359","lng":"-75.3055"}},{"id":6,"street":"Koch Summit","city":"West Andrewburgh","zipcode":"37387-7029","geo":{"id":84,"lat":"-35.6304","lng":"-177.5518"}},{"id":7,"street":"Cummerata Hills","city":"East Maxside","zipcode":"95989-7714","geo":{"id":23,"lat":"74.6523","lng":"-149.7758"}},{"id":8,"street":"Auer Mill","city":"Jessyburgh","zipcode":"51521","geo":{"id":100,"lat":"-80.2593","lng":"-58.8157"}},{"id":9,"street":"Aisha Trail","city":"New Sigmund","zipcode":"09765-7142","geo":{"id":42,"lat":"27.0571","lng":"-84.7271"}},{"id":10,"street":"Sierra Flats","city":"Legrosburgh","zipcode":"45633","geo":{"id":77,"lat":"-88.5546","lng":"15.4641"}},{"id":11,"street":"Federico Islands","city":"West Loniehaven","zipcode":"89651-9278","geo":{"id":16,"lat":"-74.8897","lng":"-141.5192"}},{"id":12,"street":"Walsh Alley","city":"East Lillian","zipcode":"86182","geo":{"id":8,"lat":"-57.2386","lng":"60.5196"}},{"id":13,"street":"Edwina Union","city":"Carletonshire","zipcode":"45066","geo":{"id":42,"lat":"65.5301","lng":"17.8287"}},{"id":14,"street":"Schumm Lake","city":"South Tara","zipcode":"16961-8779","geo":{"id":27,"lat":"28.9962","lng":"-49.2808"}},{"id":15,"street":"Kunde Shores","city":"Jodiehaven","zipcode":"58331","geo":{"id":47,"lat":"-23.8854","lng":"161.4733"}},{"id":16,"street":"Candida Ville","city":"North Carolyn","zipcode":"78664","geo":{"id":37,"lat":"-22.4347","lng":"-23.2340"}},{"id":17,"street":"Tyrell Vista","city":"South Boside","zipcode":"84695-5675","geo":{"id":91,"lat":"58.1825","lng":"-143.6227"}},{"id":18,"street":"Patricia Rapids","city":"South Kadin","zipcode":"35027-8779","geo":{"id":16,"lat":"7.4589","lng":"130.3017"}},{"id":19,"street":"Chet Plaza","city":"Rogelioton","zipcode":"77222","geo":{"id":95,"lat":"24.5361","lng":"86.6898"}},{"id":20,"street":"Johnston Inlet","city":"Lake Leslie","zipcode":"13002-0241","geo":{"id":32,"lat":"-34.8864","lng":"-153.9056"}},{"id":21,"street":"Mosciski Street","city":"New Ethel","zipcode":"32538-9561","geo":{"id":94,"lat":"66.5152","lng":"-173.9998"}},{"id":22,"street":"Mariano Hollow","city":"Shanahanfort","zipcode":"85849","geo":{"id":93,"lat":"42.7741","lng":"-8.4968"}},{"id":23,"street":"Cartwright Avenue","city":"New Roxanehaven","zipcode":"88383-0507","geo":{"id":76,"lat":"-44.2751","lng":"-18.3788"}},{"id":24,"street":"Effertz Drives","city":"Whiteton","zipcode":"22606-3704","geo":{"id":2,"lat":"-68.4894","lng":"48.1559"}},{"id":25,"street":"Johann Mission","city":"Port Derick","zipcode":"72299-5601","geo":{"id":11,"lat":"-50.0575","lng":"-27.1525"}},{"id":26,"street":"Grant Rapid","city":"Kylastad","zipcode":"36937","geo":{"id":18,"lat":"68.9119","lng":"-29.6288"}},{"id":27,"street":"Schultz Court","city":"Dewittshire","zipcode":"95946","geo":{"id":69,"lat":"5.9200","lng":"95.7017"}},{"id":28,"street":"Schultz Square","city":"Chetstad","zipcode":"14318-6238","geo":{"id":37,"lat":"64.2548","lng":"-136.3255"}},{"id":29,"street":"Emilia Gardens","city":"West Eleazarville","zipcode":"66346","geo":{"id":81,"lat":"-32.7028","lng":"-107.7490"}},{"id":30,"street":"Amaya Views","city":"Aidaburgh","zipcode":"63879","geo":{"id":11,"lat":"-19.2417","lng":"131.9186"}},{"id":31,"street":"Sydney Spring","city":"Kutchport","zipcode":"94556","geo":{"id":36,"lat":"-32.5667","lng":"123.7777"}},{"id":32,"street":"Christiansen Bridge","city":"Eldredville","zipcode":"15504-5960","geo":{"id":55,"lat":"43.4331","lng":"-32.7628"}},{"id":33,"street":"Gilda Plaza","city":"Murphyview","zipcode":"57172","geo":{"id":39,"lat":"55.4006","lng":"134.0045"}},{"id":34,"street":"Hane Manors","city":"Lake Alphonsobury","zipcode":"11972","geo":{"id":15,"lat":"-82.2378","lng":"96.0395"}},{"id":35,"street":"Mraz Lakes","city":"Bartonchester","zipcode":"06121-8231","geo":{"id":93,"lat":"35.9847","lng":"161.5452"}},{"id":36,"street":"Watsica Springs","city":"Gardnershire","zipcode":"09484-6109","geo":{"id":38,"lat":"-83.3423","lng":"146.1976"}},{"id":37,"street":"Casper Fall","city":"East Mercedesside","zipcode":"05624","geo":{"id":15,"lat":"-14.0628","lng":"-85.3852"}},{"id":38,"street":"Kenya Plaza","city":"Candaceberg","zipcode":"16744-3896","geo":{"id":63,"lat":"62.8048","lng":"22.0742"}},{"id":39,"street":"Heidenreich Spring","city":"Reynoldsmouth","zipcode":"18867-6252","geo":{"id":60,"lat":"-48.5848","lng":"139.3092"}},{"id":40,"street":"Ernser Shoal","city":"South Lillianaport","zipcode":"31306-1508","geo":{"id":21,"lat":"-68.9346","lng":"47.0091"}},{"id":41,"street":"Haag Ways","city":"Hudsonview","zipcode":"68338","geo":{"id":48,"lat":"73.0377","lng":"-62.4204"}},{"id":42,"street":"Bernadine Wells","city":"Larrytown","zipcode":"60851","geo":{"id":21,"lat":"-38.1844","lng":"-131.4410"}},{"id":43,"street":"Flatley Highway","city":"Port Jailynville","zipcode":"34997","geo":{"id":11,"lat":"86.9036","lng":"-130.4402"}},{"id":44,"street":"Shields Station","city":"Reinholdville","zipcode":"41087-4117","geo":{"id":21,"lat":"-16.7065","lng":"-101.7611"}},{"id":45,"street":"Fisher Turnpike","city":"Tressieville","zipcode":"69054-2654","geo":{"id":81,"lat":"-10.2032","lng":"9.6716"}},{"id":46,"street":"Noe Skyway","city":"Londonport","zipcode":"98931-9488","geo":{"id":98,"lat":"-8.8299","lng":"115.9462"}},{"id":47,"street":"Dare Crest","city":"Zboncakbury","zipcode":"35280-1772","geo":{"id":84,"lat":"85.3762","lng":"-16.3721"}},{"id":48,"street":"Dameon Pass","city":"New Darlene","zipcode":"66578-7861","geo":{"id":54,"lat":"-75.5553","lng":"-163.5914"}},{"id":49,"street":"Medhurst Fort","city":"North Lourdesbury","zipcode":"05291-0350","geo":{"id":47,"lat":"87.9128","lng":"142.2150"}},{"id":50,"street":"Hollie Estate","city":"Port Oscarfurt","zipcode":"96217","geo":{"id":80,"lat":"35.2926","lng":"-133.0779"}},{"id":51,"street":"Mervin Run","city":"Chaseville","zipcode":"44377","geo":{"id":12,"lat":"-73.4999","lng":"-62.2158"}},{"id":52,"street":"Bogisich Mission","city":"North Rasheedhaven","zipcode":"24895","geo":{"id":20,"lat":"76.3248","lng":"-47.3824"}},{"id":53,"street":"Kessler Causeway","city":"New Anthony","zipcode":"14734-8910","geo":{"id":95,"lat":"50.8654","lng":"117.5623"}},{"id":54,"street":"Emile Ramp","city":"Elvaborough","zipcode":"58007","geo":{"id":34,"lat":"-55.6934","lng":"-67.8879"}},{"id":55,"street":"Hermiston Valley","city":"Marksburgh","zipcode":"98524","geo":{"id":95,"lat":"36.0408","lng":"13.5459"}},{"id":56,"street":"Brown Plaza","city":"Port Paolo","zipcode":"67401","geo":{"id":16,"lat":"-34.2095","lng":"160.0030"}},{"id":57,"street":"Crooks Meadow","city":"New Dagmar","zipcode":"29497","geo":{"id":55,"lat":"45.7757","lng":"3.3221"}},{"id":58,"street":"Schaefer Green","city":"Kohlerchester","zipcode":"42607-3251","geo":{"id":44,"lat":"-9.3739","lng":"43.7700"}},{"id":59,"street":"Nikolaus Lane","city":"Mertiestad","zipcode":"38841","geo":{"id":4,"lat":"45.3873","lng":"108.3087"}},{"id":60,"street":"Jessy Course","city":"New Caleigh","zipcode":"75066","geo":{"id":30,"lat":"-89.9786","lng":"-149.1568"}},{"id":61,"street":"Ankunding Fords","city":"Ignacioborough","zipcode":"91948-4643","geo":{"id":54,"lat":"39.9848","lng":"117.4260"}},{"id":62,"street":"Flatley Center","city":"South Brookebury","zipcode":"01775-9469","geo":{"id":40,"lat":"42.9021","lng":"6.8182"}},{"id":63,"street":"Dave Prairie","city":"Port Ameliestad","zipcode":"10802-6246","geo":{"id":10,"lat":"-22.5267","lng":"136.8937"}},{"id":64,"street":"Nader Harbors","city":"Port Summer","zipcode":"36355","geo":{"id":22,"lat":"69.3644","lng":"-83.0247"}},{"id":65,"street":"Herzog Ridge","city":"Lake Leonorborough","zipcode":"07553-6006","geo":{"id":58,"lat":"-0.4110","lng":"158.8128"}},{"id":66,"street":"Stehr Mountain","city":"Idellburgh","zipcode":"26718","geo":{"id":21,"lat":"16.5022","lng":"-30.2026"}},{"id":67,"street":"Deckow Corner","city":"Sawaynfurt","zipcode":"74256","geo":{"id":87,"lat":"-51.1609","lng":"-158.7030"}},{"id":68,"street":"Rodriguez Meadow","city":"West Abelardoview","zipcode":"07313","geo":{"id":71,"lat":"11.6017","lng":"90.5898"}},{"id":69,"street":"Edwina Estates","city":"Lake Leopold","zipcode":"02533","geo":{"id":88,"lat":"-70.8557","lng":"-26.3218"}},{"id":70,"street":"Jayne Fords","city":"Vonside","zipcode":"57091","geo":{"id":62,"lat":"87.6979","lng":"8.7868"}},{"id":71,"street":"Harber Fall","city":"Schultzstad","zipcode":"57839-0420","geo":{"id":95,"lat":"-89.6198","lng":"150.4663"}},{"id":72,"street":"Madelyn Shore","city":"Port Shermanville","zipcode":"58732-5664","geo":{"id":100,"lat":"40.1060","lng":"-11.5147"}},{"id":73,"street":"Jaqueline Row","city":"Donnellyfort","zipcode":"40574","geo":{"id":10,"lat":"-63.6893","lng":"97.9039"}},{"id":74,"street":"Emilia Ville","city":"Kleinstad","zipcode":"50640-6941","geo":{"id":4,"lat":"-16.8351","lng":"59.6804"}},{"id":75,"street":"Jazmyn Canyon","city":"Keeblerport","zipcode":"18356","geo":{"id":97,"lat":"70.4194","lng":"43.8915"}},{"id":76,"street":"Katrine Trail","city":"Port Mikaylamouth","zipcode":"21276","geo":{"id":89,"lat":"47.2930","lng":"15.8702"}},{"id":77,"street":"Sid Cape","city":"Hayleyborough","zipcode":"39760","geo":{"id":15,"lat":"78.7753","lng":"88.8413"}},{"id":78,"street":"Raynor View","city":"West Terrencebury","zipcode":"00766-0299","geo":{"id":32,"lat":"49.4725","lng":"99.6165"}},{"id":79,"street":"Stoltenberg Course","city":"Billieview","zipcode":"52710-5877","geo":{"id":15,"lat":"74.2216","lng":"-62.2710"}},{"id":80,"street":"Veum Drive","city":"Newtonchester","zipcode":"91953-9186","geo":{"id":67,"lat":"1.4620","lng":"-78.4702"}},{"id":81,"street":"Wintheiser Bypass","city":"Stoltenbergport","zipcode":"47906","geo":{"id":8,"lat":"-71.3068","lng":"146.7856"}},{"id":82,"street":"Vida Well","city":"West Aureliebury","zipcode":"87733-6563","geo":{"id":89,"lat":"49.1622","lng":"-156.2563"}},{"id":83,"street":"Abernathy Passage","city":"South Lily","zipcode":"93992","geo":{"id":99,"lat":"57.0790","lng":"53.0356"}},{"id":84,"street":"Saul Views","city":"East Guillermo","zipcode":"48367-4571","geo":{"id":53,"lat":"-78.3710","lng":"122.4200"}},{"id":85,"street":"Turcotte Drive","city":"Cortezburgh","zipcode":"16958-2263","geo":{"id":41,"lat":"-66.5075","lng":"-31.5005"}},{"id":86,"street":"Santiago Prairie","city":"New Alexandro","zipcode":"75645-0646","geo":{"id":77,"lat":"-34.3569","lng":"103.8137"}},{"id":87,"street":"Bailey Crest","city":"Boscoview","zipcode":"71386","geo":{"id":59,"lat":"8.4842","lng":"149.6316"}},{"id":88,"street":"Roosevelt Wells","city":"North Leonieside","zipcode":"60513","geo":{"id":3,"lat":"79.1019","lng":"21.7210"}},{"id":89,"street":"Kulas Route","city":"West Marcus","zipcode":"23976","geo":{"id":99,"lat":"-59.7385","lng":"-95.4128"}},{"id":90,"street":"Bogisich Burgs","city":"Fadelborough","zipcode":"96422","geo":{"id":33,"lat":"7.5213","lng":"-8.0053"}},{"id":91,"street":"Hiram Viaduct","city":"Gibsonview","zipcode":"51087","geo":{"id":4,"lat":"57.8315","lng":"-56.6495"}},{"id":92,"street":"Weissnat Ville","city":"Kayaside","zipcode":"93982","geo":{"id":72,"lat":"52.6821","lng":"-40.4697"}},{"id":93,"street":"Frieda Parks","city":"North Kaceyton","zipcode":"98220-4238","geo":{"id":7,"lat":"-61.7627","lng":"150.1594"}},{"id":94,"street":"Wiegand Road","city":"Abbeyhaven","zipcode":"93809-8028","geo":{"id":12,"lat":"-80.8354","lng":"92.5485"}},{"id":95,"street":"Lyda Forge","city":"Maryview","zipcode":"68324-8320","geo":{"id":15,"lat":"-32.7440","lng":"158.2398"}},{"id":96,"street":"Quinn Centers","city":"Lake Estefania","zipcode":"90495-2026","geo":{"id":30,"lat":"53.9614","lng":"-65.6160"}},{"id":97,"street":"Gibson Mountain","city":"South Rossiebury","zipcode":"00520","geo":{"id":47,"lat":"6.5698","lng":"-164.0499"}},{"id":98,"street":"Grant Forks","city":"New Elena","zipcode":"90861","geo":{"id":14,"lat":"0.7611","lng":"-171.6257"}},{"id":99,"street":"Veum Garden","city":"South Mariahville","zipcode":"68251-5460","geo":{"id":31,"lat":"75.8756","lng":"-67.7920"}}]